{"type": "FeatureCollection", "features": [ {"type": "Feature", "properties": {"norad_id": 31480, "name": "FENGYUN 1C DEB", "group": "fengyun-1c-debris", "lat": 80.15180450746263, "lon": 77.73812322629742, "alt_km": 1038.4088845579217, "timestamp": "2025-12-15T04:01:20.734309+00:00", "meta": {"OBJECT_NAME": "FENGYUN 1C DEB", "OBJECT_ID": "1999-025BVU", "EPOCH": "2025-12-12T20:15:06.987168", "MEAN_MOTION": 13.89927681, "ECCENTRICITY": 0.03449479, "INCLINATION": 98.3381, "RA_OF_ASC_NODE": 197.9993, "ARG_OF_PERICENTER": 221.1045, "MEAN_ANOMALY": 136.366, "EPHEMERIS_TYPE": 0, "CLASSIFICATION_TYPE": "U", "NORAD_CAT_ID": 31480, "ELEMENT_SET_NO": 999, "REV_AT_EPOCH": 93397, "BSTAR": 0.0042992776, "MEAN_MOTION_DOT": 8.525e-05, "MEAN_MOTION_DDOT": 0}, "tle": {"line1": "1 31480U 99025BVU 25346.84383087  .00008525  00000+0  42993-2 0  9990", "line2": "2 31480  98.3381 197.9993 0344947 221.1045 136.3660 13.89927681933973"}}, "geometry": {"type": "Point", "coordinates": [77.73812322629742, 80.15180450746263]}}, {"type": "Feature", "properties": {"norad_id": 31482, "name": "FENGYUN 1C DEB", "group": "fengyun-1c-debris", "lat": -23.646143836587907, "lon": 169.2544824717884, "alt_km": 757.3098717922348, "timestamp": "2025-12-15T04:01:20.734320+00:00", "meta": {"OBJECT_NAME": "FENGYUN 1C DEB", "OBJECT_ID": "1999-025BVW", "EPOCH": "2025-12-13T19:52:00.179040", "MEAN_MOTION": 14.35664441, "ECCENTRICITY": 0.0088767, "INCLINATION": 98.3829, "RA_OF_ASC_NODE": 351.6539, "ARG_OF_PERICENTER": 278.9859, "MEAN_ANOMALY": 205.0368, "EPHEMERIS_TYPE": 0, "CLASSIFICATION_TYPE": "U", "NORAD_CAT_ID": 31482, "ELEMENT_SET_NO": 999, "REV_AT_EPOCH": 97145, "BSTAR": 0.000952747, "MEAN_MOTION_DOT": 2.832e-05, "MEAN_MOTION_DDOT": 0}, "tle": {"line1": "1 31482U 99025BVW 25347.82777985  .00002832  00000+0  95275-3 0  9992", "line2": "2 31482  98.3829 351.6539 0088767 278.9859 205.0368 14.35664441971453"}}, "geometry": {"type": "Point", "coordinates": [169.2544824717884, -23.646143836587907]}}, {"type": "Feature", "properties": {"norad_id": 31483, "name": "FENGYUN 1C DEB", "group": "fengyun-1c-debris", "lat": -61.95976312234225, "lon": 95.7878829061993, "alt_km": 771.0719609032685, "timestamp": "2025-12-15T04:01:20.734330+00:00", "meta": {"OBJECT_NAME": "FENGYUN 1C DEB", "OBJECT_ID": "1999-025BVX", "EPOCH": "2025-12-14T03:13:02.236224", "MEAN_MOTION": 14.16057939, "ECCENTRICITY": 0.01184892, "INCLINATION": 102.5022, "RA_OF_ASC_NODE": 298.9617, "ARG_OF_PERICENTER": 217.5907, "MEAN_ANOMALY": 160.0961, "EPHEMERIS_TYPE": 0, "CLASSIFICATION_TYPE": "U", "NORAD_CAT_ID": 31483, "ELEMENT_SET_NO": 999, "REV_AT_EPOCH": 94726, "BSTAR": 0.0031860333, "MEAN_MOTION_DOT": 6.668e-05, "MEAN_MOTION_DDOT": 0}, "tle": {"line1": "1 31483U 99025BVX 25348.13405366  .00006668  00000+0  31860-2 0  9999", "line2": "2 31483 102.5022 298.9617 0118489 217.5907 160.0961 14.16057939947263"}}, "geometry": {"type": "Point", "coordinates": [95.7878829061993, -61.95976312234225]}}, {"type": "Feature", "properties": {"norad_id": 31484, "name": "FENGYUN 1C DEB", "group": "fengyun-1c-debris", "lat": -27.785892659082283, "lon": 100.19504383551441, "alt_km": 702.3282263314431, "timestamp": "2025-12-15T04:01:20.734342+00:00", "meta": {"OBJECT_NAME": "FENGYUN 1C DEB", "OBJECT_ID": "1999-025BVY", "EPOCH": "2025-12-12T13:49:03.741600", "MEAN_MOTION": 14.50402466, "ECCENTRICITY": 0.00829237, "INCLINATION": 101.8042, "RA_OF_ASC_NODE": 282.9003, "ARG_OF_PERICENTER": 152.4488, "MEAN_ANOMALY": 208.1125, "EPHEMERIS_TYPE": 0, "CLASSIFICATION_TYPE": "U", "NORAD_CAT_ID": 31484, "ELEMENT_SET_NO": 999, "REV_AT_EPOCH": 64235, "BSTAR": 0.0066347373, "MEAN_MOTION_DOT": 0.00027123, "MEAN_MOTION_DDOT": 0}, "tle": {"line1": "1 31484U 99025BVY 25346.57573775  .00027123  00000+0  66347-2 0  9993", "line2": "2 31484 101.8042 282.9003 0082923 152.4488 208.1125 14.50402466642359"}}, "geometry": {"type": "Point", "coordinates": [100.19504383551441, -27.785892659082283]}}, {"type": "Feature", "properties": {"norad_id": 31485, "name": "FENGYUN 1C DEB", "group": "fengyun-1c-debris", "lat": 56.92694975435718, "lon": 156.72951860459332, "alt_km": 1179.0942194571662, "timestamp": "2025-12-15T04:01:20.734353+00:00", "meta": {"OBJECT_NAME": "FENGYUN 1C DEB", "OBJECT_ID": "1999-025BVZ", "EPOCH": "2025-12-14T08:01:32.865024", "MEAN_MOTION": 13.40054304, "ECCENTRICITY": 0.04461821, "INCLINATION": 102.7191, "RA_OF_ASC_NODE": 175.9755, "ARG_OF_PERICENTER": 315.491, "MEAN_ANOMALY": 41.1161, "EPHEMERIS_TYPE": 0, "CLASSIFICATION_TYPE": "U", "NORAD_CAT_ID": 31485, "ELEMENT_SET_NO": 999, "REV_AT_EPOCH": 90466, "BSTAR": 0.0031168251, "MEAN_MOTION_DOT": 2.978e-05, "MEAN_MOTION_DDOT": 0}, "tle": {"line1": "1 31485U 99025BVZ 25348.33440816  .00002978  00000+0  31168-2 0  9993", "line2": "2 31485 102.7191 175.9755 0446182 315.4910  41.1161 13.40054304904664"}}, "geometry": {"type": "Point", "coordinates": [156.72951860459332, 56.92694975435718]}}, {"type": "Feature", "properties": {"norad_id": 31487, "name": "FENGYUN 1C DEB", "group": "fengyun-1c-debris", "lat": -41.97891024754401, "lon": 169.90342677607492, "alt_km": 823.7124061331042, "timestamp": "2025-12-15T04:01:20.734366+00:00", "meta": {"OBJECT_NAME": "FENGYUN 1C DEB", "OBJECT_ID": "1999-025BWB", "EPOCH": "2025-12-13T17:56:35.040192", "MEAN_MOTION": 13.97736151, "ECCENTRICITY": 0.01205182, "INCLINATION": 102.4133, "RA_OF_ASC_NODE": 156.5613, "ARG_OF_PERICENTER": 303.9935, "MEAN_ANOMALY": 70.7981, "EPHEMERIS_TYPE": 0, "CLASSIFICATION_TYPE": "U", "NORAD_CAT_ID": 31487, "ELEMENT_SET_NO": 999, "REV_AT_EPOCH": 94426, "BSTAR": 0.0019324333, "MEAN_MOTION_DOT": 2.833e-05, "MEAN_MOTION_DDOT": 0}, "tle": {"line1": "1 31487U 99025BWB 25347.74762778  .00002833  00000+0  19324-2 0  9993", "line2": "2 31487 102.4133 156.5613 0120518 303.9935  70.7981 13.97736151944265"}}, "geometry": {"type": "Point", "coordinates": [169.90342677607492, -41.97891024754401]}}, {"type": "Feature", "properties": {"norad_id": 31491, "name": "FENGYUN 1C DEB", "group": "fengyun-1c-debris", "lat": -32.48208432405046, "lon": -96.12493379589739, "alt_km": 824.7674665162385, "timestamp": "2025-12-15T04:01:20.734377+00:00", "meta": {"OBJECT_NAME": "FENGYUN 1C DEB", "OBJECT_ID": "1999-025BWE", "EPOCH": "2025-12-13T04:44:11.383872", "MEAN_MOTION": 14.17269112, "ECCENTRICITY": 0.00518484, "INCLINATION": 99.3043, "RA_OF_ASC_NODE": 255.8234, "ARG_OF_PERICENTER": 267.3751, "MEAN_ANOMALY": 92.1487, "EPHEMERIS_TYPE": 0, "CLASSIFICATION_TYPE": "U", "NORAD_CAT_ID": 31491, "ELEMENT_SET_NO": 999, "REV_AT_EPOCH": 63734, "BSTAR": 0.0029952157, "MEAN_MOTION_DOT": 6.086e-05, "MEAN_MOTION_DDOT": 0}, "tle": {"line1": "1 31491U 99025BWE 25347.19735398  .00006086  00000+0  29952-2 0  9997", "line2": "2 31491  99.3043 255.8234 0051848 267.3751  92.1487 14.17269112637342"}}, "geometry": {"type": "Point", "coordinates": [-96.12493379589739, -32.48208432405046]}}, {"type": "Feature", "properties": {"norad_id": 31492, "name": "FENGYUN 1C DEB", "group": "fengyun-1c-debris", "lat": -33.831008315079664, "lon": 161.39342664724617, "alt_km": 627.2020740619037, "timestamp": "2025-12-15T04:01:20.734387+00:00", "meta": {"OBJECT_NAME": "FENGYUN 1C DEB", "OBJECT_ID": "1999-025BWF", "EPOCH": "2025-12-13T09:43:40.259712", "MEAN_MOTION": 14.70813595, "ECCENTRICITY": 0.00645282, "INCLINATION": 98.8565, "RA_OF_ASC_NODE": 153.4808, "ARG_OF_PERICENTER": 6.7668, "MEAN_ANOMALY": 353.4392, "EPHEMERIS_TYPE": 0, "CLASSIFICATION_TYPE": "U", "NORAD_CAT_ID": 31492, "ELEMENT_SET_NO": 999, "REV_AT_EPOCH": 96516, "BSTAR": 0.0056827225, "MEAN_MOTION_DOT": 0.00035971, "MEAN_MOTION_DDOT": 0}, "tle": {"line1": "1 31492U 99025BWF 25347.40532708  .00035971  00000+0  56827-2 0  9998", "line2": "2 31492  98.8565 153.4808 0064528   6.7668 353.4392 14.70813595965168"}}, "geometry": {"type": "Point", "coordinates": [161.39342664724617, -33.831008315079664]}}, {"type": "Feature", "properties": {"norad_id": 31493, "name": "FENGYUN 1C DEB", "group": "fengyun-1c-debris", "lat": -38.22577527482255, "lon": -56.610718852477596, "alt_km": 999.5953144358919, "timestamp": "2025-12-15T04:01:20.734398+00:00", "meta": {"OBJECT_NAME": "FENGYUN 1C DEB", "OBJECT_ID": "1999-025BWG", "EPOCH": "2025-12-12T02:05:14.361792", "MEAN_MOTION": 13.92967952, "ECCENTRICITY": 0.01169776, "INCLINATION": 100.136, "RA_OF_ASC_NODE": 291.9196, "ARG_OF_PERICENTER": 177.3499, "MEAN_ANOMALY": 182.8302, "EPHEMERIS_TYPE": 0, "CLASSIFICATION_TYPE": "U", "NORAD_CAT_ID": 31493, "ELEMENT_SET_NO": 999, "REV_AT_EPOCH": 59857, "BSTAR": 0.0010865995, "MEAN_MOTION_DOT": 1.441e-05, "MEAN_MOTION_DDOT": 0}, "tle": {"line1": "1 31493U 99025BWG 25346.08697178  .00001441  00000+0  10866-2 0  9993", "line2": "2 31493 100.1360 291.9196 0116977 177.3499 182.8302 13.92967952598572"}}, "geometry": {"type": "Point", "coordinates": [-56.610718852477596, -38.22577527482255]}}, {"type": "Feature", "properties": {"norad_id": 31495, "name": "FENGYUN 1C DEB", "group": "fengyun-1c-debris", "lat": 72.87888790611858, "lon": 73.8882457089341, "alt_km": 779.949630839249, "timestamp": "2025-12-15T04:01:20.734407+00:00", "meta": {"OBJECT_NAME": "FENGYUN 1C DEB", "OBJECT_ID": "1999-025BWJ", "EPOCH": "2025-12-13T11:12:35.488224", "MEAN_MOTION": 14.29218227, "ECCENTRICITY": 0.00254692, "INCLINATION": 99.1205, "RA_OF_ASC_NODE": 220.6771, "ARG_OF_PERICENTER": 175.9955, "MEAN_ANOMALY": 184.1434, "EPHEMERIS_TYPE": 0, "CLASSIFICATION_TYPE": "U", "NORAD_CAT_ID": 31495, "ELEMENT_SET_NO": 999, "REV_AT_EPOCH": 63401, "BSTAR": 0.0019333038, "MEAN_MOTION_DOT": 4.884e-05, "MEAN_MOTION_DDOT": 0}, "tle": {"line1": "1 31495U 99025BWJ 25347.46707741  .00004884  00000+0  19333-2 0  9998", "line2": "2 31495  99.1205 220.6771 0025469 175.9955 184.1434 14.29218227634019"}}, "geometry": {"type": "Point", "coordinates": [73.8882457089341, 72.87888790611858]}}]}